STARLINK-37300          
1 68682U 26077W   26112.59433389 -.00533149  00000+0 -31930-2 0  9992
2 68682  97.2827 343.6812 0002376 155.6449 204.4931 15.79116280  1820
