{
  "norad_id": 68682,
  "name": "STARLINK-37300",
  "history": [
    {
      "epoch": "2026-04-22T14:15:50.448096Z",
      "apogee_km": 334.53803421524026,
      "perigee_km": 331.3485262012691,
      "latitude_deg": 4.0436384426320255e-06,
      "longitude_deg": -80.93267757945557,
      "height_km": 337.56855572803215,
      "semi_major_axis_km": 6711.080280208254,
      "eccentricity": 0.00023763,
      "inclination_deg": 97.2827,
      "raan_deg": 343.6812,
      "arg_perigee_deg": 155.6449,
      "mean_anomaly_deg": 204.4931,
      "mean_motion_rev_day": 15.7911628
    }
  ]
}